{"type": "FeatureCollection", "features": [ {"type": "Feature", "properties": {"norad_id": 43010, "name": "FENGYUN 3D", "group": "weather", "lat": -75.04500020177588, "lon": 2.2627874106278445, "alt_km": 834.4889652343945, "timestamp": "2025-12-25T09:48:51.930917+00:00", "meta": {"OBJECT_NAME": "FENGYUN 3D", "OBJECT_ID": "2017-072A", "EPOCH": "2025-12-25T05:06:25.500096", "MEAN_MOTION": 14.19687267, "ECCENTRICITY": 0.0001525, "INCLINATION": 98.9914, "RA_OF_ASC_NODE": 325.7104, "ARG_OF_PERICENTER": 146.5453, "MEAN_ANOMALY": 213.5819, "EPHEMERIS_TYPE": 0, "CLASSIFICATION_TYPE": "U", "NORAD_CAT_ID": 43010, "ELEMENT_SET_NO": 999, "REV_AT_EPOCH": 42030, "BSTAR": 5.0555e-05, "MEAN_MOTION_DOT": 6.1e-07, "MEAN_MOTION_DDOT": 0}, "tle": {"line1": "1 43010U 17072A   25359.21279514  .00000061  00000+0  50555-4 0  9990", "line2": "2 43010  98.9914 325.7104 0001525 146.5453 213.5819 14.19687267420302"}}, "geometry": {"type": "Point", "coordinates": [2.2627874106278445, -75.04500020177588]}}, {"type": "Feature", "properties": {"norad_id": 43013, "name": "NOAA 20 (JPSS-1)", "group": "weather", "lat": 65.31564416656708, "lon": -84.0371332712147, "alt_km": 819.0473334373946, "timestamp": "2025-12-25T09:48:51.930929+00:00", "meta": {"OBJECT_NAME": "NOAA 20 (JPSS-1)", "OBJECT_ID": "2017-073A", "EPOCH": "2025-12-25T01:02:33.235872", "MEAN_MOTION": 14.19528938, "ECCENTRICITY": 0.0002074, "INCLINATION": 98.7615, "RA_OF_ASC_NODE": 295.2065, "ARG_OF_PERICENTER": 69.6621, "MEAN_ANOMALY": 290.4778, "EPHEMERIS_TYPE": 0, "CLASSIFICATION_TYPE": "U", "NORAD_CAT_ID": 43013, "ELEMENT_SET_NO": 999, "REV_AT_EPOCH": 41976, "BSTAR": 6.5293e-05, "MEAN_MOTION_DOT": 9.4e-07, "MEAN_MOTION_DDOT": 0}, "tle": {"line1": "1 43013U 17073A   25359.04344023  .00000094  00000+0  65293-4 0  9994", "line2": "2 43013  98.7615 295.2065 0002074  69.6621 290.4778 14.19528938419765"}}, "geometry": {"type": "Point", "coordinates": [-84.0371332712147, 65.31564416656708]}}, {"type": "Feature", "properties": {"norad_id": 43226, "name": "GOES 17", "group": "weather", "lat": 0.4475694340925589, "lon": 151.8515841563995, "alt_km": 35794.05134497666, "timestamp": "2025-12-25T09:48:51.930949+00:00", "meta": {"OBJECT_NAME": "GOES 17", "OBJECT_ID": "2018-022A", "EPOCH": "2025-12-24T22:56:44.493792", "MEAN_MOTION": 1.00272054, "ECCENTRICITY": 0.0003091, "INCLINATION": 0.4873, "RA_OF_ASC_NODE": 89.0534, "ARG_OF_PERICENTER": 190.9391, "MEAN_ANOMALY": 68.4163, "EPHEMERIS_TYPE": 0, "CLASSIFICATION_TYPE": "U", "NORAD_CAT_ID": 43226, "ELEMENT_SET_NO": 999, "REV_AT_EPOCH": 2867, "BSTAR": 0, "MEAN_MOTION_DOT": -1.62e-06, "MEAN_MOTION_DDOT": 0}, "tle": {"line1": "1 43226U 18022A   25358.95607053 -.00000162  00000+0  00000+0 0  9996", "line2": "2 43226   0.4873  89.0534 0003091 190.9391  68.4163  1.00272054 28677"}}, "geometry": {"type": "Point", "coordinates": [151.8515841563995, 0.4475694340925589]}}, {"type": "Feature", "properties": {"norad_id": 43491, "name": "FENGYUN 2H", "group": "weather", "lat": -2.2422503036922414, "lon": -39.28099946393541, "alt_km": 35783.75326344153, "timestamp": "2025-12-25T09:48:51.930963+00:00", "meta": {"OBJECT_NAME": "FENGYUN 2H", "OBJECT_ID": "2018-050A", "EPOCH": "2025-12-24T23:44:54.879648", "MEAN_MOTION": 1.00270521, "ECCENTRICITY": 0.0002408, "INCLINATION": 2.5805, "RA_OF_ASC_NODE": 81.201, "ARG_OF_PERICENTER": 166.3972, "MEAN_ANOMALY": 281.7244, "EPHEMERIS_TYPE": 0, "CLASSIFICATION_TYPE": "U", "NORAD_CAT_ID": 43491, "ELEMENT_SET_NO": 999, "REV_AT_EPOCH": 2769, "BSTAR": 0, "MEAN_MOTION_DOT": -1.09e-06, "MEAN_MOTION_DDOT": 0}, "tle": {"line1": "1 43491U 18050A   25358.98952407 -.00000109  00000+0  00000+0 0  9991", "line2": "2 43491   2.5805  81.2010 0002408 166.3972 281.7244  1.00270521 27693"}}, "geometry": {"type": "Point", "coordinates": [-39.28099946393541, -2.2422503036922414]}}, {"type": "Feature", "properties": {"norad_id": 43689, "name": "METOP-C", "group": "weather", "lat": -61.73831696597195, "lon": 73.5144679880498, "alt_km": 827.3679511888831, "timestamp": "2025-12-25T09:48:51.930974+00:00", "meta": {"OBJECT_NAME": "METOP-C", "OBJECT_ID": "2018-087A", "EPOCH": "2025-12-25T03:21:10.924128", "MEAN_MOTION": 14.21489011, "ECCENTRICITY": 6.33e-05, "INCLINATION": 98.6912, "RA_OF_ASC_NODE": 56.7183, "ARG_OF_PERICENTER": 16.0492, "MEAN_ANOMALY": 344.0705, "EPHEMERIS_TYPE": 0, "CLASSIFICATION_TYPE": "U", "NORAD_CAT_ID": 43689, "ELEMENT_SET_NO": 999, "REV_AT_EPOCH": 37010, "BSTAR": 7.9971e-05, "MEAN_MOTION_DOT": 1.31e-06, "MEAN_MOTION_DDOT": 0}, "tle": {"line1": "1 43689U 18087A   25359.13970977  .00000131  00000+0  79971-4 0  9992", "line2": "2 43689  98.6912  56.7183 0000633  16.0492 344.0705 14.21489011370106"}}, "geometry": {"type": "Point", "coordinates": [73.5144679880498, -61.73831696597195]}}, {"type": "Feature", "properties": {"norad_id": 43823, "name": "GEO-KOMPSAT-2A", "group": "weather", "lat": -0.02221518147194456, "lon": 9.618865854898827, "alt_km": 35786.669857558685, "timestamp": "2025-12-25T09:48:51.930986+00:00", "meta": {"OBJECT_NAME": "GEO-KOMPSAT-2A", "OBJECT_ID": "2018-100A", "EPOCH": "2025-12-24T05:33:51.801120", "MEAN_MOTION": 1.00269294, "ECCENTRICITY": 3.001e-05, "INCLINATION": 0.0444, "RA_OF_ASC_NODE": 175.8502, "ARG_OF_PERICENTER": 270.743, "MEAN_ANOMALY": 218.1364, "EPHEMERIS_TYPE": 0, "CLASSIFICATION_TYPE": "U", "NORAD_CAT_ID": 43823, "ELEMENT_SET_NO": 999, "REV_AT_EPOCH": 2587, "BSTAR": 0, "MEAN_MOTION_DOT": -3.23e-06, "MEAN_MOTION_DDOT": 0}, "tle": {"line1": "1 43823U 18100A   25358.23184955 -.00000323  00000+0  00000+0 0  9997", "line2": "2 43823   0.0444 175.8502 0000300 270.7430 218.1364  1.00269294 25878"}}, "geometry": {"type": "Point", "coordinates": [9.618865854898827, -0.02221518147194456]}}, {"type": "Feature", "properties": {"norad_id": 44387, "name": "METEOR-M2 2", "group": "weather", "lat": 40.08192393364314, "lon": 166.86952663911725, "alt_km": 806.4412671031778, "timestamp": "2025-12-25T09:48:51.930997+00:00", "meta": {"OBJECT_NAME": "METEOR-M2 2", "OBJECT_ID": "2019-038A", "EPOCH": "2025-12-25T04:06:17.952768", "MEAN_MOTION": 14.24296286, "ECCENTRICITY": 0.00018, "INCLINATION": 98.8986, "RA_OF_ASC_NODE": 339.0525, "ARG_OF_PERICENTER": 124.5068, "MEAN_ANOMALY": 235.628, "EPHEMERIS_TYPE": 0, "CLASSIFICATION_TYPE": "U", "NORAD_CAT_ID": 44387, "ELEMENT_SET_NO": 999, "REV_AT_EPOCH": 33652, "BSTAR": 7.6025e-05, "MEAN_MOTION_DOT": 1.3e-06, "MEAN_MOTION_DDOT": 0}, "tle": {"line1": "1 44387U 19038A   25359.17104112  .00000130  00000+0  76025-4 0  9995", "line2": "2 44387  98.8986 339.0525 0001800 124.5068 235.6280 14.24296286336527"}}, "geometry": {"type": "Point", "coordinates": [166.86952663911725, 40.08192393364314]}}, {"type": "Feature", "properties": {"norad_id": 47719, "name": "ARKTIKA-M 1", "group": "weather", "lat": 51.45684976753495, "lon": -137.0567436079373, "alt_km": 27767.992103506655, "timestamp": "2025-12-25T09:48:51.931010+00:00", "meta": {"OBJECT_NAME": "ARKTIKA-M 1", "OBJECT_ID": "2021-016A", "EPOCH": "2025-12-23T01:01:51.743136", "MEAN_MOTION": 2.00630806, "ECCENTRICITY": 0.72093828, "INCLINATION": 63.1759, "RA_OF_ASC_NODE": 82.5898, "ARG_OF_PERICENTER": 269.1646, "MEAN_ANOMALY": 15.5425, "EPHEMERIS_TYPE": 0, "CLASSIFICATION_TYPE": "U", "NORAD_CAT_ID": 47719, "ELEMENT_SET_NO": 999, "REV_AT_EPOCH": 3525, "BSTAR": 0, "MEAN_MOTION_DOT": -6.7e-07, "MEAN_MOTION_DDOT": 0}, "tle": {"line1": "1 47719U 21016A   25357.04295999 -.00000067  00000+0  00000+0 0  9999", "line2": "2 47719  63.1759  82.5898 7209382 269.1646  15.5425  2.00630806 35258"}}, "geometry": {"type": "Point", "coordinates": [-137.0567436079373, 51.45684976753495]}}, {"type": "Feature", "properties": {"norad_id": 49008, "name": "FENGYUN 3E", "group": "weather", "lat": -74.66956800098353, "lon": 145.6096318138462, "alt_km": 832.786689500449, "timestamp": "2025-12-25T09:48:51.931025+00:00", "meta": {"OBJECT_NAME": "FENGYUN 3E", "OBJECT_ID": "2021-062A", "EPOCH": "2025-12-25T00:08:59.663904", "MEAN_MOTION": 14.19880478, "ECCENTRICITY": 9.536e-05, "INCLINATION": 98.7476, "RA_OF_ASC_NODE": 359.3815, "ARG_OF_PERICENTER": 191.0635, "MEAN_ANOMALY": 169.052, "EPHEMERIS_TYPE": 0, "CLASSIFICATION_TYPE": "U", "NORAD_CAT_ID": 49008, "ELEMENT_SET_NO": 999, "REV_AT_EPOCH": 23186, "BSTAR": -7.5946387e-05, "MEAN_MOTION_DOT": -2.05e-06, "MEAN_MOTION_DDOT": 0}, "tle": {"line1": "1 49008U 21062A   25359.00624611 -.00000205  00000+0 -75946-4 0  9999", "line2": "2 49008  98.7476 359.3815 0000953 191.0635 169.0520 14.19880478231863"}}, "geometry": {"type": "Point", "coordinates": [145.6096318138462, -74.66956800098353]}}, {"type": "Feature", "properties": {"norad_id": 51850, "name": "GOES 18", "group": "weather", "lat": -6.49581688256597e-05, "lon": 104.37818889057168, "alt_km": 35787.63576341123, "timestamp": "2025-12-25T09:48:51.931037+00:00", "meta": {"OBJECT_NAME": "GOES 18", "OBJECT_ID": "2022-021A", "EPOCH": "2025-12-25T02:08:26.134368", "MEAN_MOTION": 1.00271254, "ECCENTRICITY": 4.06e-05, "INCLINATION": 0.0027, "RA_OF_ASC_NODE": 276.3002, "ARG_OF_PERICENTER": 41.3938, "MEAN_ANOMALY": 31.2662, "EPHEMERIS_TYPE": 0, "CLASSIFICATION_TYPE": "U", "NORAD_CAT_ID": 51850, "ELEMENT_SET_NO": 999, "REV_AT_EPOCH": 484, "BSTAR": 0, "MEAN_MOTION_DOT": 1.18e-06, "MEAN_MOTION_DDOT": 0}, "tle": {"line1": "1 51850U 22021A   25359.08919137  .00000118  00000+0  00000+0 0  9996", "line2": "2 51850   0.0027 276.3002 0000406  41.3938  31.2662  1.00271254  4846"}}, "geometry": {"type": "Point", "coordinates": [104.37818889057168, -6.49581688256597e-05]}}]}